#cP2017  5 17  0  0  0.00000000      96 ORBIT IGS14 HLM  IGS
## 1949 259200.00000000   900.00000000 57890 0.0000000000000
+   31   G01G02G03G05G06G07G08G09G10G11G12G13G14G15G16G17G18
+        G19G20G21G22G23G24G25G26G27G28G29G30G31G32  0  0  0
+          0  0  0  0  0  0  0  0  0  0  0  0  0  0  0  0  0
+          0  0  0  0  0  0  0  0  0  0  0  0  0  0  0  0  0
+          0  0  0  0  0  0  0  0  0  0  0  0  0  0  0  0  0
++         2  2  2  2  2  2  2  2  2  2  2  2  2  2  3  2  2
++         2  2  2  2  2  2  2  2  2  2  2  2  2  2  0  0  0
++         0  0  0  0  0  0  0  0  0  0  0  0  0  0  0  0  0
++         0  0  0  0  0  0  0  0  0  0  0  0  0  0  0  0  0
++         0  0  0  0  0  0  0  0  0  0  0  0  0  0  0  0  0
%c G  cc GPS ccc cccc cccc cccc cccc ccccc ccccc ccccc ccccc
%c cc cc ccc ccc cccc cccc cccc cccc ccccc ccccc ccccc ccccc
%f  1.2500000  1.025000000  0.00000000000  0.000000000000000
%f  0.0000000  0.000000000  0.00000000000  0.000000000000000
%i    0    0    0    0      0      0      0      0         0
%i    0    0    0    0      0      0      0      0         0
/* FINAL ORBIT COMBINATION FROM WEIGHTED AVERAGE OF:        
/* cod emr esa gfz grg jpl mit ngs sio                      
/* REFERENCED TO IGS TIME (IGST) AND TO WEIGHTED MEAN POLE: 
/* PCV:IGS14_1930 OL/AL:FES2004  NONE     Y  ORB:CMB CLK:CMB
*  2017  5 17 16 30  0.00000000
PG01   1062.829054 -16056.171445 -21192.588478     54.780680  5  3  4  91       
PG02 -19870.667661  15486.181193   8379.658869    417.754033  7 11  5 116       
PG03  -9263.735234 -20340.555536 -14375.052627    -99.994971  5  7  5  59       
PG05 -11081.251580  10954.043543  21438.091070    -45.600460     5  4  86       
PG06 -25279.799913   5464.366140  -6058.684202    352.120761  3  6  5  98       
PG07 -14063.576984 -10024.627297  20466.917462    350.410937  5  5  5 102       
PG08   5901.517468 -25646.970444   3224.314175    -60.043196  7 10  7  90       
PG09  -9440.649546 -18248.424538  16800.927349    365.222807  3  5  7  77       
PG10  22764.336106   8246.005277 -11020.306435    -51.310061  4  7  5 113       
PG11   4297.239782 -21435.430342 -15688.730049   -688.775338  7  7  3  83       
PG12   3414.711355  19232.925744 -18255.357337    383.382699  3 10  8  67       
PG13 -12234.485174  21856.200559   8792.398850    -82.127563  5  6  5  98       
PG14  15796.106993  -7660.715180 -19608.465662    -71.056370  6  8  2 103       
PG15  -1628.853215  26304.418421   -641.743917   -350.077443  4  9  5  85       
PG16  12064.782374  -8490.565778  21985.525661     33.414236  8  9  8  70       
PG17 -14387.569063  -2633.277816 -21811.669347   -179.180055  4  6  3  73       
PG18  21967.626217  15033.882695  -1065.786249    615.898398  7  7  5  78       
PG19 -15945.785826   6517.001672 -20565.942887   -503.322302  3  8  6  83       
PG20   5403.673520  19171.769625  17428.625770    472.578134  5  8  6  67       
PG21  19009.773870   6305.516314  18288.879226   -506.474581  5  3  5  85       
PG22    245.593050 -17922.866063 -19337.215988      7.062937  6  8  6 104       
PG23  -2271.388873 -25046.211386   8053.919572   -211.948786  9 10  6  79       
PG24  -3656.702691  17204.541788 -19919.992956    -34.964133  4  8  6  64       
PG25  16397.546605  19710.390727  -7502.209231   -388.834208  4  5  1 104       
PG26  19389.907506  -1030.873446  18155.880964   -503.285518  5  6  4  83       
PG27  12248.038501 -18954.776142  13775.321519    259.287396  8 10  9  76       
PG28 -21466.739721 -13089.844494  -7924.709097    613.529888  6  7  4  68       
PG29   5984.219274  20921.489162  15244.175583    603.497891  6  6  5  65       
PG30 -23487.589186  -1771.622132  12399.124430    156.615968  4  7  3  99       
PG31  25727.405197  -6270.049069  -3883.841454    200.518693  4  6  5  96       
PG32  15286.336716    760.161707 -21686.623326   -416.195243  4  4  4  76       
*  2017  5 17 16 45  0.00000000
PG01   3264.393318 -16893.204430 -20268.845611     54.781101  5  4  4  89       
PG02 -20679.242753  15549.352394   5689.941599    417.746857  7 11  6 122       
PG03  -7747.334446 -19430.757751 -16387.150983    -99.993272  5  7  5  74       
PG05 -13046.941143   9489.846524  21046.193721    -45.599122     5  4  80       
PG06 -24588.377441   4922.882086  -8755.713343    352.125191  3  6  5 104       
PG07 -11909.572778 -10953.249755  21308.755264    350.407254  5  5  5  76       
PG08   6082.599480 -25099.233844   6032.537957    -60.043985  7 11  8 101       
PG09  -9056.116255 -20035.322516  14867.113799    365.230027  3  6  7  21       
PG10  23526.533767   9091.849896  -8476.339251    -51.301193  5  7  5  83       
PG11   5623.997083 -22396.240892 -13739.783258   -688.777695  7  8  3 103       
PG12   1735.464249  17917.405798 -19762.931365    383.381715  3 10  9  52       
PG13 -12161.086932  20676.245043  11340.154485    -82.128864  5  6  5  94       
PG14  15438.440668  -5324.213273 -20640.767203    -71.057671  6  8     88       
PG15  -1996.879150  26180.561849   2169.574290   -350.077826  3  9  5  91       
PG16  13937.610201  -6829.691197  21489.034071     33.414875  7  9  8  89       
PG17 -13958.112954  -5156.305623 -21655.706732   -179.178272  5  6  3  66       
PG18  21796.776417  15328.968744   1705.755243    615.900293  7  7  5  36       
PG19 -15497.791601   4220.959911 -21475.080997   -503.320974  3  8  5  83       
PG20   3502.940976  18230.823950  18853.417340    472.579429  5  8  6  70       
PG21  17232.689318   7296.496151  19678.558280   -506.472493  4  2  5  90       
PG22   2242.479078 -16717.282397 -20260.362592      7.051784  6  8  6  97       
PG23  -1875.207634 -25757.052321   5347.520644   -211.949520  9 10  6  85       
PG24  -5711.874810  18008.818860 -18659.754551    -34.965255  4  8  5  72       
PG25  15508.070142  19257.953577 -10137.169654   -388.840108  3  5     72       
PG26  20897.713120    258.172397  16437.092484   -503.281552  5  6  4  96       
PG27  12223.892603 -17234.618788  15904.216923    259.293299  7  9  9  70       
PG28 -21963.528488 -13767.930978  -5145.827800    613.532570  6  7  4  65       
PG29   5554.393133  22484.166662  13024.189994    603.494632  6  6  5  86       
PG30 -22108.995757  -2499.418330  14599.363549    156.615054  4  7  3  85       
PG31  25239.028750  -5862.421397  -6645.828319    200.516327  4  5  5 107       
PG32  15008.578405   3229.352444 -21657.859414   -416.204608  4  4  5  83       
*  2017  5 17 17  0  0.00000000
PG01   5309.830096 -17791.868704 -18997.386484     54.781541  5  4  4  86       
PG02 -21216.843851  15497.870375   2901.577985    417.739754  7 11  6 116       
PG03  -6008.961922 -18484.153791 -18117.645800    -99.991597  5  7  4  97       
PG05 -15026.475110   8161.493550  20290.441534    -45.597326  2  5  5  95       
PG06 -23661.419871   4211.389228 -11302.060334    352.129630  3  6  5  94       
PG07  -9737.823031 -12028.682158  21791.892456    350.403205  5  5  5  89       
PG08   6276.407922 -24249.671470   8736.479947    -60.045319  7 11  8 105       
PG09  -8774.862672 -21606.233178  12676.910245    365.237221  3  7  7  83       
PG10  24084.541817   9734.221150  -5787.268919    -51.292332  5  7  5  90       
PG11   6762.537430 -23242.688251 -11562.469570   -688.780317  7  8  3  93       
PG12   -138.048026  16609.691866 -20936.941784    383.380883  2 10  9  81       
PG13 -12103.114254  19219.237279  13692.130478    -82.129332  4  5  5  71       
PG14  15188.323634  -2876.411717 -21308.113404    -71.058869  6  7     83       
PG15  -2374.266661  25756.098691   4942.620887   -350.078895  3  9  5  74       
PG16  15836.770761  -5327.727791  20620.603802     33.415538  7  9  8  63       
PG17 -13670.521793  -7656.915850 -21114.904783   -179.176365  5  6  3  86       
PG18  21378.566978  15468.755854   4448.454308    615.901587  7  8  5  66       
PG19 -15165.702158   1821.170636 -22025.204821   -503.319843  4  8  5  79       
PG20   1433.980536  17311.510974  19950.059179    472.581378  5  8  6  44       
PG21  15392.126939   8439.017804  20751.372909   -506.470618  4  2  5  85       
PG22   4364.808283 -15559.824641 -20827.004674      7.041039  5  7  6 106       
PG23  -1528.244516 -26174.180317   2547.144910   -211.950174  9 10  6  85       
PG24  -7585.748067  18838.318713 -17078.215132    -34.966130  4  9  4  27       
PG25  14356.302451  18696.700602 -12600.832812   -388.846055  3  5  1 100       
PG26  22293.198642   1353.084297  14436.344713   -503.277600  4  6  4  86       
PG27  12279.861900 -15289.889039  17755.877316    259.299284  7  8  9  83       
PG28 -22244.443568 -14213.344807  -2276.983172    613.535328  6  7  5  79       
PG29   5242.409912  23805.375830  10580.330559    603.491921  6  7  5  90       
PG30 -20553.021102  -3388.016043  16549.807910    156.614148  4  6  4  97       
PG31  24497.199420  -5300.274804  -9295.823120    200.514437  4  5  5 104       
PG32  14860.105158   5684.737825 -21255.887402   -416.213917  4  3  5  91       
EOF
